NORAD_CAT_ID,OBJECT_NAME,OBJECT_TYPE,EPOCH,MEAN_MOTION,ECCENTRICITY,INCLINATION,RA_OF_ASC_NODE,ARG_OF_PERICENTER,MEAN_ANOMALY,BSTAR,MEAN_MOTION_DOT,MEAN_MOTION_DDOT,TLE_LINE0,TLE_LINE1,TLE_LINE2,SEMIMAJOR_AXIS,PERIOD,APOGEE,PERIGEE,DECAYED
56811.0,STARLINK-6063,PAYLOAD,2023-12-02 21:46:35,15.69901267,0.0003242,69.9994,251.3578,269.0239,91.0585,-1.9128e-05,-2.51e-05,0.0,0 STARLINK-6063,1 56811U 23078AW  23336.90735527 -.00002510  00000-0 -19128-4 0  9991,2 56811  69.9994 251.3578 0003242 269.0239  91.0585 15.69901267 29186,6737.316,91.726,361.366,356.997,0.0
56811.0,STARLINK-6063,PAYLOAD,2023-12-03 03:53:35,15.69911425,0.0002709,70.0013,250.6441,257.3903,102.699,6.986e-07,-1.28e-06,0.0,0 STARLINK-6063,1 56811U 23078AW  23337.16221899 -.00000128  00000-0  69860-6 0  9994,2 56811  70.0013 250.6441 0002709 257.3903 102.6990 15.69911425 29486,6737.287,91.725,360.978,357.327,0.0
56811.0,STARLINK-6063,PAYLOAD,2023-12-03 20:42:51,15.69930202,0.0003613,69.9996,248.6727,271.3204,88.7578,4.0323e-05,4.64e-05,0.0,0 STARLINK-6063,1 56811U 23078AW  23337.86309845  .00004640  00000-0  40323-4 0  9992,2 56811  69.9996 248.6727 0003613 271.3204  88.7578 15.69930202 29594,6737.234,91.724,361.533,356.665,0.0
56811.0,STARLINK-6063,PAYLOAD,2023-12-04 04:21:37,15.69932646,0.0003179,69.9993,247.7769,266.7263,93.3569,5.3404e-05,6.215e-05,0.0,0 STARLINK-6063,1 56811U 23078AW  23338.18168116  .00006215  00000-0  53404-4 0  9996,2 56811  69.9993 247.7769 0003179 266.7263  93.3569 15.69932646 29380,6737.227,91.724,361.233,356.95,0.0
56811.0,STARLINK-6063,PAYLOAD,2023-12-04 18:07:23,15.69929264,0.0002937,69.9995,246.1659,264.9611,95.1249,2.0335e-05,2.234e-05,0.0,0 STARLINK-6063,1 56811U 23078AW  23338.75513017  .00002234  00000-0  20335-4 0  9997,2 56811  69.9995 246.1659 0002937 264.9611  95.1249 15.69929264 29478,6737.236,91.724,361.08,357.123,0.0
56811.0,STARLINK-6063,PAYLOAD,2023-12-05 03:17:54,15.6992693,0.0002915,69.9993,245.0913,262.4751,97.6114,2.6146e-05,2.933e-05,0.0,0 STARLINK-6063,1 56811U 23078AW  23339.13743086  .00002933  00000-0  26146-4 0  9993,2 56811  69.9993 245.0913 0002915 262.4751  97.6114 15.69926930 29791,6737.243,91.724,361.072,357.144,0.0
56811.0,STARLINK-6063,PAYLOAD,2023-12-06 03:45:55,15.69924607,0.0003023,69.9982,242.2234,273.6177,86.4673,-1.7579e-06,-4.24e-06,0.0,0 STARLINK-6063,1 56811U 23078AW  23340.15689608 -.00000424  00000-0 -17579-5 0  9992,2 56811  69.9982 242.2234 0003023 273.6177  86.4673 15.69924607 29954,6737.25,91.724,361.151,357.078,0.0
56811.0,STARLINK-6063,PAYLOAD,2023-12-07 02:42:12,15.69925833,0.0003289,69.9971,239.5357,269.4063,90.6756,8.6391e-06,8.26e-06,0.0,0 STARLINK-6063,1 56811U 23078AW  23341.11264574  .00000826  00000-0  86391-5 0  9992,2 56811  69.9971 239.5357 0003289 269.4063  90.6756 15.69925833 29847,6737.246,91.724,361.327,356.895,0.0
56811.0,STARLINK-6063,PAYLOAD,2023-12-08 03:10:15,15.69918314,0.0002331,70.0004,236.6691,285.9333,74.1606,2.2101e-05,2.445e-05,0.0,0 STARLINK-6063,1 56811U 23078AW  23342.13211931  .00002445  00000-0  22101-4 0  9991,2 56811  70.0004 236.6691 0002331 285.9333  74.1606 15.69918314 30261,6737.268,91.725,360.703,357.562,0.0
56811.0,STARLINK-6063,PAYLOAD,2023-12-09 02:06:32,15.69908425,0.0002306,70.0009,233.9827,300.7501,59.3467,3.4026e-05,3.878e-05,0.0,0 STARLINK-6063,1 56811U 23078AW  23343.08787591  .00003878  00000-0  34026-4 0  9996,2 56811  70.0009 233.9827 0002306 300.7501  59.3467 15.69908425 30411,6737.296,91.725,360.715,357.607,0.0
56811.0,STARLINK-6063,PAYLOAD,2023-12-09 15:52:17,15.69924698,0.0003216,70.0024,232.3694,263.3098,96.7732,1.3423e-05,1.402e-05,0.0,0 STARLINK-6063,1 56811U 23078AW  23343.66131546  .00001402  00000-0  13423-4 0  9992,2 56811  70.0024 232.3694 0003216 263.3098  96.7732 15.69924698 30509,6737.249,91.724,361.281,356.948,0.0
56811.0,STARLINK-6063,PAYLOAD,2023-12-10 19:23:49,15.69931053,0.0002928,70.0007,229.1469,263.1667,96.9196,1.0615e-05,1.064e-05,0.0,0 STARLINK-6063,1 56811U 23078AW  23344.80821039  .00001064  00000-0  10615-4 0  9996,2 56811  70.0007 229.1469 0002928 263.1667  96.9196 15.69931053 30681,6737.231,91.724,361.069,357.124,0.0
56811.0,STARLINK-6063,PAYLOAD,2023-12-11 01:30:50,15.69916746,0.0003291,69.9976,228.4295,263.9548,96.1273,-5.628e-06,-8.89e-06,0.0,0 STARLINK-6063,1 56811U 23078AW  23345.06309002 -.00000889  00000-0 -56280-5 0  9991,2 56811  69.9976 228.4295 0003291 263.9548  96.1273 15.69916746 30727,6737.272,91.725,361.354,356.92,0.0
56811.0,STARLINK-6063,PAYLOAD,2023-12-11 19:51:51,15.69925365,0.0003293,69.998,226.2816,261.2645,98.8177,5.3154e-06,4.26e-06,0.0,0 STARLINK-6063,1 56811U 23078AW  23345.82768330  .00000426  00000-0  53154-5 0  9990,2 56811  69.9980 226.2816 0003293 261.2645  98.8177 15.69925365 30840,6737.248,91.724,361.331,356.894,0.0
56811.0,STARLINK-6063,PAYLOAD,2023-12-12 01:58:52,15.69922815,0.0003486,69.998,225.5653,266.0187,94.0611,2.2337e-06,5.6e-07,0.0,0 STARLINK-6063,1 56811U 23078AW  23346.08255232  .00000056  00000-0  22337-5 0  9999,2 56811  69.9980 225.5653 0003486 266.0187  94.0611 15.69922815 30623,6737.255,91.724,361.468,356.771,0.0
56811.0,STARLINK-6063,PAYLOAD,2023-12-12 18:48:08,15.69933203,0.0003466,69.9983,223.5932,269.9149,90.165,-3.8882e-06,-6.81e-06,0.0,0 STARLINK-6063,1 56811U 23078AW  23346.78343213 -.00000681  00000-0 -38882-5 0  9991,2 56811  69.9983 223.5932 0003466 269.9149  90.1650 15.69933203 30737,6737.225,91.724,361.425,356.755,0.0
56811.0,STARLINK-6063,PAYLOAD,2023-12-13 00:55:08,15.69944506,0.0003194,69.9986,222.8779,262.825,97.2583,9.6406e-06,9.48e-06,0.0,0 STARLINK-6063,1 56811U 23078AW  23347.03828788  .00000948  00000-0  96406-5 0  9995,2 56811  69.9986 222.8779 0003194 262.8250  97.2583 15.69944506 31039,6737.193,91.723,361.21,356.906,0.0
56811.0,STARLINK-6063,PAYLOAD,2023-12-13 19:16:11,15.69917018,0.0002948,70.0,220.7305,233.3023,126.7903,1.2271e-05,1.263e-05,0.0,0 STARLINK-6063,1 56811U 23078AW  23347.80290655  .00001263  00000-0  12271-4 0  9994,2 56811  70.0000 220.7305 0002948 233.3023 126.7903 15.69917018 31153,6737.271,91.725,361.123,357.15,0.0
56811.0,STARLINK-6063,PAYLOAD,2023-12-14 01:23:11,15.69919942,0.0003154,69.9984,220.011,262.6911,97.3926,1.008e-05,9.99e-06,0.0,0 STARLINK-6063,1 56811U 23078AW  23348.05777264  .00000999  00000-0  10080-4 0  9999,2 56811  69.9984 220.0110 0003154 262.6911  97.3926 15.69919942 30930,6737.263,91.724,361.253,357.003,0.0
56811.0,STARLINK-6063,PAYLOAD,2023-12-14 18:12:26,15.69939486,0.0003195,69.9972,218.0407,255.2399,104.8443,2.9424e-07,-1.77e-06,0.0,0 STARLINK-6063,1 56811U 23078AW  23348.75864533 -.00000177  00000-0  29424-6 0  9995,2 56811  69.9972 218.0407 0003195 255.2399 104.8443 15.69939486 31301,6737.207,91.723,361.225,356.92,0.0
56811.0,STARLINK-6063,PAYLOAD,2023-12-15 00:19:27,15.69933653,0.0003665,69.997,217.3236,267.3153,92.7623,-1.3864e-06,-3.8e-06,0.0,0 STARLINK-6063,1 56811U 23078AW  23349.01351460 -.00000380  00000-0 -13864-5 0  9992,2 56811  69.9970 217.3236 0003665 267.3153  92.7623 15.69933653 31344,6737.224,91.724,361.558,356.62,0.0
56811.0,STARLINK-6063,PAYLOAD,2023-12-15 18:40:30,15.69908421,0.000243,70.0009,215.176,251.6156,108.4775,1.3614e-05,1.424e-05,0.0,0 STARLINK-6063,1 56811U 23078AW  23349.77813293  .00001424  00000-0  13614-4 0  9992,2 56811  70.0009 215.1760 0002430 251.6156 108.4775 15.69908421 31467,6737.296,91.725,360.798,357.524,0.0
56811.0,STARLINK-6063,PAYLOAD,2023-12-16 00:47:29,15.69937858,0.0003513,69.9968,214.4572,265.1439,94.9355,1.9872e-05,2.179e-05,0.0,0 STARLINK-6063,1 56811U 23078AW  23350.03297953  .00002179  00000-0  19872-4 0  9992,2 56811  69.9968 214.4572 0003513 265.1439  94.9355 15.69937858 31502,6737.212,91.723,361.444,356.71,0.0
56811.0,STARLINK-6063,PAYLOAD,2023-12-16 17:36:47,15.69911103,0.0002766,70.0004,212.4876,257.6901,102.3986,2.4281e-05,2.706e-05,0.0,0 STARLINK-6063,1 56811U 23078AW  23350.73387900  .00002706  00000-0  24281-4 0  9997,2 56811  70.0004 212.4876 0002766 257.6901 102.3986 15.69911103 31611,6737.288,91.725,361.017,357.29,0.0
56811.0,STARLINK-6063,PAYLOAD,2023-12-17 01:15:32,15.69915235,0.0002444,69.9999,211.591,249.482,110.6113,2.6058e-05,2.921e-05,0.0,0 STARLINK-6063,1 56811U 23078AW  23351.05246160  .00002921  00000-0  26058-4 0  9998,2 56811  69.9999 211.5910 0002444 249.4820 110.6113 15.69915235 31403,6737.277,91.725,360.788,357.495,0.0
56811.0,STARLINK-6063,PAYLOAD,2023-12-17 18:04:47,15.69942424,0.0002713,69.9981,209.6182,246.4738,113.6173,1.1615e-05,1.185e-05,0.0,0 STARLINK-6063,1 56811U 23078AW  23351.75333118  .00001185  00000-0  11615-4 0  9999,2 56811  69.9981 209.6182 0002713 246.4738 113.6173 15.69942424 31776,6737.199,91.723,360.892,357.236,0.0
56811.0,STARLINK-6063,PAYLOAD,2023-12-18 00:11:48,15.69929331,0.0003267,69.9994,208.9024,267.2178,92.8644,-7.3084e-06,-1.092e-05,0.0,0 STARLINK-6063,1 56811U 23078AW  23352.00820435 -.00001092  00000-0 -73084-5 0  9999,2 56811  69.9994 208.9024 0003267 267.2178  92.8644 15.69929331 31819,6737.236,91.724,361.302,356.9,0.0
56811.0,STARLINK-6063,PAYLOAD,2023-12-18 15:29:20,15.69913525,0.0003364,69.9993,207.1118,263.2327,96.8486,-2.607e-05,-3.345e-05,0.0,0 STARLINK-6063,1 56811U 23078AW  23352.64538068 -.00003345  00000-0 -26070-4 0  9992,2 56811  69.9993 207.1118 0003364 263.2327  96.8486 15.69913525 31910,6737.281,91.725,361.413,356.88,0.0
56811.0,STARLINK-6063,PAYLOAD,2023-12-19 00:39:50,15.6993778,0.0003616,69.9973,206.0368,266.2059,93.8723,9.8086e-06,9.67e-06,0.0,0 STARLINK-6063,1 56811U 23078AW  23353.02766756  .00000967  00000-0  98086-5 0  9994,2 56811  69.9973 206.0368 0003616 266.2059  93.8723 15.69937780 31974,6737.212,91.723,361.513,356.641,0.0
56811.0,STARLINK-6063,PAYLOAD,2023-12-19 17:29:07,15.69922656,0.000292,69.999,204.0684,253.0462,107.0413,1.15e-05,1.17e-05,0.0,0 STARLINK-6063,1 56811U 23078AW  23353.72855823  .00001170  00000-0  11500-4 0  9997,2 56811  69.9990 204.0684 0002920 253.0462 107.0413 15.69922656 32084,6737.255,91.724,361.088,357.153,0.0
